{
    "links": {
        "self": "http://www.neowsapp.com/rest/v1/neo/3787070?api_key=iIulBulltgU6a56xZRHN4H3l9WmuAYTsLGpBGhQ2"
    },
    "id": "3787070",
    "neo_reference_id": "3787070",
    "name": "(2017 UR)",
    "designation": "2017 UR",
    "nasa_jpl_url": "http://ssd.jpl.nasa.gov/sbdb.cgi?sstr=3787070",
    "absolute_magnitude_h": 25.1,
    "estimated_diameter": {
        "kilometers": {
            "estimated_diameter_min": 0.0253837029,
            "estimated_diameter_max": 0.0567596853
        },
        "meters": {
            "estimated_diameter_min": 25.3837029364,
            "estimated_diameter_max": 56.7596852866
        },
        "miles": {
            "estimated_diameter_min": 0.0157726969,
            "estimated_diameter_max": 0.0352688224
        },
        "feet": {
            "estimated_diameter_min": 83.279867942,
            "estimated_diameter_max": 186.2194458756
        }
    },
    "is_potentially_hazardous_asteroid": false,
    "close_approach_data": [
        {
            "close_approach_date": "2017-10-15",
            "close_approach_date_full": "2017-Oct-15 11:36",
            "epoch_date_close_approach": 1508067360000,
            "relative_velocity": {
                "kilometers_per_second": "11.2323063571",
                "kilometers_per_hour": "40436.302885402",
                "miles_per_hour": "25125.5460900988"
            },
            "miss_distance": {
                "astronomical": "0.0122412415",
                "lunar": "4.7618429435",
                "kilometers": "1831263.654555605",
                "miles": "1137894.470073149"
            },
            "orbiting_body": "Earth"
        }
    ],
    "orbital_data": {
        "orbit_id": "1",
        "orbit_determination_date": "2017-10-18 19:59:44",
        "first_observation_date": "2017-10-16",
        "last_observation_date": "2017-10-18",
        "data_arc_in_days": 2,
        "observations_used": 105,
        "orbit_uncertainty": "7",
        "minimum_orbit_intersection": ".0139031",
        "jupiter_tisserand_invariant": "3.500",
        "epoch_osculation": "2459000.5",
        "eccentricity": ".5253953241635436",
        "semi_major_axis": "2.122246029554951",
        "inclination": "15.22509144688642",
        "ascending_node_longitude": "22.91858821113434",
        "orbital_period": "1129.254998250462",
        "perihelion_distance": "1.007227888902134",
        "perihelion_argument": "352.1506942390113",
        "aphelion_distance": "3.237264170207767",
        "perihelion_time": "2459164.576073441579",
        "mean_anomaly": "307.6934912570847",
        "mean_motion": ".3187942497998617",
        "equinox": "J2000",
        "orbit_class": {
            "orbit_class_type": "APO",
            "orbit_class_description": "Near-Earth asteroid orbits which cross the Earth’s orbit similar to that of 1862 Apollo",
            "orbit_class_range": "a (semi-major axis) > 1.0 AU; q (perihelion) < 1.017 AU"
        }
    },
    "is_sentry_object": false
}